ORBCOMM FM37            
1 33064U 08031E   25017.61013213  .00003765  00000+0  53552-3 0  9993
2 33064  48.4407 338.9918 0005607  82.7971  86.7290 14.78720689891752
ORBCOMM FM40            
1 33065U 08031F   25017.26165764  .00004614  00000+0  62061-3 0  9993
2 33065  48.4428 327.0581 0006983  94.3838  50.7371 14.80681313891787
VESSELSAT 1             
1 37840U 11058C   25017.07967696  .00000429  00000+0  89608-4 0  9991
2 37840  19.9625 288.2107 0013567 324.7842  35.1665 14.11294778684936
ORBCOMM FM109           
1 40086U 14040A   25017.35412603  .00001720  00000+0  40989-3 0  9998
2 40086  47.0050   8.4258 0002219 341.7587  18.3218 14.57688134559056
ORBCOMM FM107           
1 40087U 14040B   25017.32075962  .00001358  00000+0  33099-3 0  9990
2 40087  47.0067   9.5981 0002184 305.8486  54.2196 14.57755646559125
ORBCOMM FM106           
1 40088U 14040C   25017.46049611  .00002135  00000+0  39399-3 0  9991
2 40088  47.0577 203.0020 0016540  88.9827 271.2959 14.68713105561314
ORBCOMM FM111           
1 40089U 14040D   25017.58016355  .00004955  00000+0  59704-3 0  9998
2 40089  47.0023  72.5279 0030584 195.1284 164.8701 14.84800636567837
ORBCOMM FM104           
1 40090U 14040E   25017.42047031  .00001273  00000+0  32260-3 0  9996
2 40090  47.0061  40.9499 0017283 238.9338 120.9851 14.56209050558641
